NORAD_CAT_ID,OBJECT_NAME,OBJECT_TYPE,EPOCH,MEAN_MOTION,ECCENTRICITY,INCLINATION,RA_OF_ASC_NODE,ARG_OF_PERICENTER,MEAN_ANOMALY,BSTAR,MEAN_MOTION_DOT,MEAN_MOTION_DDOT,TLE_LINE0,TLE_LINE1,TLE_LINE2,SEMIMAJOR_AXIS,PERIOD,APOGEE,PERIGEE,DECAYED
50159.0,STARLINK-3297,PAYLOAD,2023-11-28 10:55:24,15.08850971,0.0001754,53.219,35.1728,110.5054,249.6126,0.00080379,0.00012531,0.0,0 STARLINK-3297,1 50159U 21125D   23332.45514736  .00012531  00000-0  80379-3 0  9991,2 50159  53.2190  35.1728 0001754 110.5054 249.6126 15.08850971107272,6917.847,95.437,540.925,538.498,0.0
50159.0,STARLINK-3297,PAYLOAD,2023-11-29 10:46:10,15.08859456,0.0001796,53.2192,30.7126,110.5834,249.5351,0.00030156,4.517e-05,0.0,0 STARLINK-3297,1 50159U 21125D   23333.44873049  .00004517  00000-0  30156-3 0  9999,2 50159  53.2192  30.7126 0001796 110.5834 249.5351 15.08859456110965,6917.821,95.436,540.928,538.443,0.0
50159.0,STARLINK-3297,PAYLOAD,2023-11-30 10:36:58,15.08846022,0.0001873,53.2194,26.256,106.0688,254.051,-0.00011837,-2.172e-05,0.0,0 STARLINK-3297,1 50159U 21125D   23334.44234536 -.00002172  00000-0 -11837-3 0  9994,2 50159  53.2194  26.2560 0001873 106.0688 254.0510 15.08846022107578,6917.862,95.437,541.023,538.431,0.0
50159.0,STARLINK-3297,PAYLOAD,2023-12-01 04:06:13,15.08832989,0.0002176,53.2198,22.9843,118.8218,241.2993,-0.00013026,-2.36e-05,0.0,0 STARLINK-3297,1 50159U 21125D   23335.17099248 -.00002360  00000-0 -13026-3 0  9995,2 50159  53.2198  22.9843 0002176 118.8218 241.2993 15.08832989107688,6917.902,95.438,541.272,538.261,0.0
50159.0,STARLINK-3297,PAYLOAD,2023-12-01 08:52:23,15.08839284,0.0001802,53.2195,22.0919,108.2365,251.8824,-0.00018617,-3.25e-05,0.0,0 STARLINK-3297,1 50159U 21125D   23335.36971163 -.00003250  00000-0 -18617-3 0  9991,2 50159  53.2195  22.0919 0001802 108.2365 251.8824 15.08839284111254,6917.883,95.438,540.994,538.501,0.0
50159.0,STARLINK-3297,PAYLOAD,2023-12-02 11:53:53,15.08873638,0.0001687,53.2195,17.0384,96.7366,263.3818,0.00042287,6.454e-05,0.0,0 STARLINK-3297,1 50159U 21125D   23336.49575386  .00006454  00000-0  42287-3 0  9990,2 50159  53.2195  17.0384 0001687  96.7366 263.3818 15.08873638107883,6917.778,95.435,540.81,538.476,0.0
50159.0,STARLINK-3297,PAYLOAD,2023-12-03 02:12:24,15.08830158,0.0001768,53.2179,14.3602,85.3098,274.8096,-0.00019551,-3.397e-05,0.0,0 STARLINK-3297,1 50159U 21125D   23337.09194892 -.00003397  00000-0 -19551-3 0  9999,2 50159  53.2179  14.3602 0001768  85.3098 274.8096 15.08830158107979,6917.91,95.438,540.999,538.552,0.0
50159.0,STARLINK-3297,PAYLOAD,2023-12-03 10:09:22,15.08813367,0.0001332,53.2183,12.8682,96.7556,263.3588,-9.0625e-05,-1.729e-05,0.0,0 STARLINK-3297,1 50159U 21125D   23337.42317223 -.00001729  00000-0 -90625-4 0  9990,2 50159  53.2183  12.8682 0001332  96.7556 263.3588 15.08813367108026,6917.962,95.439,540.748,538.905,0.0
50159.0,STARLINK-3297,PAYLOAD,2023-12-04 11:35:31,15.08843703,0.0002065,53.2192,8.1096,63.5866,296.5338,-0.00015633,-2.776e-05,0.0,0 STARLINK-3297,1 50159U 21125D   23338.48300405 -.00002776  00000-0 -15633-3 0  9999,2 50159  53.2192   8.1096 0002065  63.5866 296.5338 15.08843703108188,6917.869,95.437,541.163,538.306,0.0
50159.0,STARLINK-3297,PAYLOAD,2023-12-05 08:15:32,15.08835123,0.0002614,53.2189,4.2516,47.9382,312.1832,0.00048616,7.457e-05,0.0,0 STARLINK-3297,1 50159U 21125D   23339.34412344  .00007457  00000-0  48616-3 0  9997,2 50159  53.2189   4.2516 0002614  47.9382 312.1832 15.08835123111856,6917.895,95.438,541.569,537.952,0.0
50159.0,STARLINK-3297,PAYLOAD,2023-12-06 04:55:32,15.08847126,0.000199,53.2185,0.3835,84.4154,275.7065,0.00019346,2.793e-05,0.0,0 STARLINK-3297,1 50159U 21125D   23340.20523774  .00002793  00000-0  19346-3 0  9990,2 50159  53.2185   0.3835 0001990  84.4154 275.7065 15.08847126108441,6917.859,95.437,541.1,538.347,0.0
50159.0,STARLINK-3297,PAYLOAD,2023-12-06 11:17:05,15.0884422,0.0001846,53.2181,359.194,73.5576,286.5618,0.0001975,2.857e-05,0.0,0 STARLINK-3297,1 50159U 21125D   23340.47019692  .00002857  00000-0  19750-3 0  9998,2 50159  53.2181 359.1940 0001846  73.5576 286.5618 15.08844220112021,6917.867,95.437,541.01,538.455,0.0
50159.0,STARLINK-3297,PAYLOAD,2023-12-07 04:46:19,15.08847367,0.0002084,53.218,355.9179,87.1148,273.0083,-6.5824e-05,-1.336e-05,0.0,0 STARLINK-3297,1 50159U 21125D   23341.19883835 -.00001336  00000-0 -65824-4 0  9993,2 50159  53.2180 355.9179 0002084  87.1148 273.0083 15.08847367108598,6917.858,95.437,541.165,538.281,0.0
50159.0,STARLINK-3297,PAYLOAD,2023-12-07 06:21:42,15.08849488,0.0001864,53.2184,355.6205,81.8081,278.3122,-0.000102,-1.912e-05,0.0,0 STARLINK-3297,1 50159U 21125D   23341.26507767 -.00001912  00000-0 -10200-3 0  9995,2 50159  53.2184 355.6205 0001864  81.8081 278.3122 15.08849488112145,6917.851,95.437,541.006,538.427,0.0
50159.0,STARLINK-3297,PAYLOAD,2023-12-08 01:26:20,15.08840959,0.0001831,53.2179,352.0525,95.6824,264.4376,-6.2561e-05,-1.284e-05,0.0,0 STARLINK-3297,1 50159U 21125D   23342.05996013 -.00001284  00000-0 -62561-4 0  9999,2 50159  53.2179 352.0525 0001831  95.6824 264.4376 15.08840959108727,6917.877,95.437,541.009,538.476,0.0
50159.0,STARLINK-3297,PAYLOAD,2023-12-08 07:47:52,15.0884211,0.0001859,53.2193,350.8704,91.8167,268.3038,1.8091e-05,0.0,0.0,0 STARLINK-3297,1 50159U 21125D   23342.32491748  .00000000  00000-0  18091-4 0  9996,2 50159  53.2193 350.8704 0001859  91.8167 268.3038 15.08842110112304,6917.874,95.437,541.025,538.453,0.0
50159.0,STARLINK-3297,PAYLOAD,2023-12-09 04:27:54,15.08833889,0.0001886,53.2194,347.0064,98.8366,261.2839,6.1852e-05,6.96e-06,0.0,0 STARLINK-3297,1 50159U 21125D   23343.18604304  .00000696  00000-0  61852-4 0  9999,2 50159  53.2194 347.0064 0001886  98.8366 261.2839 15.08833889108893,6917.899,95.438,541.069,538.459,0.0
50159.0,STARLINK-3297,PAYLOAD,2023-12-09 14:00:12,15.08837974,0.0001823,53.2189,345.2194,87.4138,272.7063,8.873e-05,1.124e-05,0.0,0 STARLINK-3297,1 50159U 21125D   23343.58348098  .00001124  00000-0  88730-4 0  9999,2 50159  53.2189 345.2194 0001823  87.4138 272.7063 15.08837974112499,6917.887,95.438,541.013,538.49,0.0
50159.0,STARLINK-3297,PAYLOAD,2023-12-10 09:04:50,15.08836786,0.0001847,53.2193,341.6523,88.3822,271.7382,1.6926e-05,-1.9e-07,0.0,0 STARLINK-3297,1 50159U 21125D   23344.37836621 -.00000019  00000-0  16926-4 0  9992,2 50159  53.2193 341.6523 0001847  88.3822 271.7382 15.08836786109079,6917.89,95.438,541.033,538.477,0.0
50159.0,STARLINK-3297,PAYLOAD,2023-12-11 07:20:14,15.08842697,0.0001693,53.2182,337.4863,95.5649,264.5536,3.7183e-05,3.04e-06,0.0,0 STARLINK-3297,1 50159U 21125D   23345.30572224  .00000304  00000-0  37183-4 0  9996,2 50159  53.2182 337.4863 0001693  95.5649 264.5536 15.08842697112751,6917.872,95.437,540.908,538.566,0.0
50159.0,STARLINK-3297,PAYLOAD,2023-12-11 18:27:56,15.08842051,0.0001791,53.2189,335.4099,85.1278,274.9919,7.5984e-05,9.21e-06,0.0,0 STARLINK-3297,1 50159U 21125D   23345.76940290  .00000921  00000-0  75984-4 0  9994,2 50159  53.2189 335.4099 0001791  85.1278 274.9919 15.08842051109287,6917.874,95.437,540.978,538.5,0.0
50159.0,STARLINK-3297,PAYLOAD,2023-12-12 05:35:38,15.0884238,0.0001836,53.2187,333.3282,79.2495,280.8703,9.1748e-05,1.172e-05,0.0,0 STARLINK-3297,1 50159U 21125D   23346.23308259  .00001172  00000-0  91748-4 0  9995,2 50159  53.2187 333.3282 0001836  79.2495 280.8703 15.08842380112894,6917.873,95.437,541.008,538.468,0.0
50159.0,STARLINK-3297,PAYLOAD,2023-12-13 03:51:02,15.088451,0.0001899,53.219,329.1664,76.8391,283.2813,5.3344e-05,5.61e-06,0.0,0 STARLINK-3297,1 50159U 21125D   23347.16044162  .00000561  00000-0  53344-4 0  9999,2 50159  53.2190 329.1664 0001899  76.8391 283.2813 15.08845100109496,6917.865,95.437,541.044,538.416,0.0
50159.0,STARLINK-3297,PAYLOAD,2023-12-13 05:26:25,15.0884376,0.0001849,53.2189,328.8683,78.5869,281.5331,3.9544e-05,3.41e-06,0.0,0 STARLINK-3297,1 50159U 21125D   23347.22668199  .00000341  00000-0  39544-4 0  9990,2 50159  53.2189 328.8683 0001849  78.5869 281.5331 15.08843760113047,6917.869,95.437,541.013,538.455,0.0
50159.0,STARLINK-3297,PAYLOAD,2023-12-14 03:41:49,15.08839584,0.0001652,53.2192,324.7051,82.2761,277.8418,8.1191e-07,-2.75e-06,0.0,0 STARLINK-3297,1 50159U 21125D   23348.15404420 -.00000275  00000-0  81191-6 0  9992,2 50159  53.2192 324.7051 0001652  82.2761 277.8418 15.08839584109644,6917.882,95.438,540.889,538.604,0.0
50159.0,STARLINK-3297,PAYLOAD,2023-12-15 03:32:36,15.08838868,0.000154,53.2185,320.249,86.4322,273.6847,4.6381e-05,4.5e-06,0.0,0 STARLINK-3297,1 50159U 21125D   23349.14764347  .00000450  00000-0  46381-4 0  9993,2 50159  53.2185 320.2490 0001540  86.4322 273.6847 15.08838868113334,6917.884,95.438,540.814,538.683,0.0
50159.0,STARLINK-3297,PAYLOAD,2023-12-16 03:23:24,15.08831779,0.0001507,53.2182,315.7838,91.3493,268.7672,2.8595e-06,-2.42e-06,0.0,0 STARLINK-3297,1 50159U 21125D   23350.14125230 -.00000242  00000-0  28595-5 0  9995,2 50159  53.2182 315.7838 0001507  91.3493 268.7672 15.08831779109940,6917.906,95.438,540.813,538.728,0.0
50159.0,STARLINK-3297,PAYLOAD,2023-12-17 03:14:10,15.08845103,0.000152,53.2181,311.3209,94.0442,266.0724,0.00010545,1.391e-05,0.0,0 STARLINK-3297,1 50159U 21125D   23351.13484299  .00001391  00000-0  10545-3 0  9997,2 50159  53.2181 311.3209 0001520  94.0442 266.0724 15.08845103110095,6917.865,95.437,540.781,538.678,0.0
50159.0,STARLINK-3297,PAYLOAD,2023-12-18 04:40:20,15.08849456,0.0001503,53.2174,306.5646,94.969,265.1474,0.00019451,2.81e-05,0.0,0 STARLINK-3297,1 50159U 21125D   23352.19467850  .00002810  00000-0  19451-3 0  9990,2 50159  53.2174 306.5646 0001503  94.9690 265.1474 15.08849456110258,6917.851,95.437,540.756,538.677,0.0
50159.0,STARLINK-3297,PAYLOAD,2023-12-19 02:55:44,15.08842289,0.0001646,53.2173,302.4022,143.5938,216.5167,-2.8323e-06,-3.33e-06,0.0,0 STARLINK-3297,1 50159U 21125D   23353.12204813 -.00000333  00000-0 -28323-5 0  9992,2 50159  53.2173 302.4022 0001646 143.5938 216.5167 15.08842289110395,6917.873,95.437,540.877,538.6,0.0
